{
    "links": {
        "self": "http://www.neowsapp.com/rest/v1/neo/3838034?api_key=iIulBulltgU6a56xZRHN4H3l9WmuAYTsLGpBGhQ2"
    },
    "id": "3838034",
    "neo_reference_id": "3838034",
    "name": "(2019 BH3)",
    "designation": "2019 BH3",
    "nasa_jpl_url": "http://ssd.jpl.nasa.gov/sbdb.cgi?sstr=3838034",
    "absolute_magnitude_h": 25.7,
    "estimated_diameter": {
        "kilometers": {
            "estimated_diameter_min": 0.0192555078,
            "estimated_diameter_max": 0.0430566244
        },
        "meters": {
            "estimated_diameter_min": 19.2555078188,
            "estimated_diameter_max": 43.0566244241
        },
        "miles": {
            "estimated_diameter_min": 0.0119648141,
            "estimated_diameter_max": 0.0267541378
        },
        "feet": {
            "estimated_diameter_min": 63.1742402722,
            "estimated_diameter_max": 141.2618956756
        }
    },
    "is_potentially_hazardous_asteroid": false,
    "close_approach_data": [
        {
            "close_approach_date": "2019-02-04",
            "close_approach_date_full": "2019-Feb-04 02:34",
            "epoch_date_close_approach": 1549247640000,
            "relative_velocity": {
                "kilometers_per_second": "8.8473651951",
                "kilometers_per_hour": "31850.5147022611",
                "miles_per_hour": "19790.6712048577"
            },
            "miss_distance": {
                "astronomical": "0.0358916951",
                "lunar": "13.9618693939",
                "kilometers": "5369321.137649437",
                "miles": "3336341.4467267506"
            },
            "orbiting_body": "Earth"
        },
        {
            "close_approach_date": "2136-05-06",
            "close_approach_date_full": "2136-May-06 19:00",
            "epoch_date_close_approach": 5249386800000,
            "relative_velocity": {
                "kilometers_per_second": "16.2376295172",
                "kilometers_per_hour": "58455.4662618131",
                "miles_per_hour": "36321.9534669582"
            },
            "miss_distance": {
                "astronomical": "0.2787837024",
                "lunar": "108.4468602336",
                "kilometers": "41705448.069753888",
                "miles": "25914563.7562561344"
            },
            "orbiting_body": "Earth"
        }
    ],
    "orbital_data": {
        "orbit_id": "2",
        "orbit_determination_date": "2019-02-03 07:04:37",
        "first_observation_date": "2019-01-24",
        "last_observation_date": "2019-02-03",
        "data_arc_in_days": 10,
        "observations_used": 20,
        "orbit_uncertainty": "8",
        "minimum_orbit_intersection": ".0147848",
        "jupiter_tisserand_invariant": "3.835",
        "epoch_osculation": "2458508.5",
        "eccentricity": ".4832655949262441",
        "semi_major_axis": "1.866737583315444",
        "inclination": "2.693493851757141",
        "ascending_node_longitude": "124.6642559343336",
        "orbital_period": "931.5868162300476",
        "perihelion_distance": ".9646075345433268",
        "perihelion_argument": "41.13084316213524",
        "aphelion_distance": "2.768867632087561",
        "perihelion_time": "2458542.581089728932",
        "mean_anomaly": "346.8297918254505",
        "mean_motion": ".3864374138063167",
        "equinox": "J2000",
        "orbit_class": {
            "orbit_class_type": "APO",
            "orbit_class_description": "Near-Earth asteroid orbits which cross the Earth’s orbit similar to that of 1862 Apollo",
            "orbit_class_range": "a (semi-major axis) > 1.0 AU; q (perihelion) < 1.017 AU"
        }
    },
    "is_sentry_object": false
}